[{"OBJECT_NAME":"STARLINK-6142","OBJECT_ID":"2023-090N","EPOCH":"2026-03-09T13:28:21.789984","MEAN_MOTION":15.02545684,"ECCENTRICITY":0.00013637,"INCLINATION":43.0034,"RA_OF_ASC_NODE":275.3878,"ARG_OF_PERICENTER":255.4769,"MEAN_ANOMALY":104.5922,"EPHEMERIS_TYPE":0,"CLASSIFICATION_TYPE":"U","NORAD_CAT_ID":57113,"ELEMENT_SET_NO":999,"REV_AT_EPOCH":15039,"BSTAR":1.0133333e-5,"MEAN_MOTION_DOT":-6.7e-7,"MEAN_MOTION_DDOT":0},{"OBJECT_NAME":"SL-3 DEB","OBJECT_ID":"1988-032C","EPOCH":"2026-03-09T20:54:05.348736","MEAN_MOTION":15.06065434,"ECCENTRICITY":0.00240661,"INCLINATION":97.6252,"RA_OF_ASC_NODE":41.5186,"ARG_OF_PERICENTER":162.4496,"MEAN_ANOMALY":255.7854,"EPHEMERIS_TYPE":0,"CLASSIFICATION_TYPE":"U","NORAD_CAT_ID":24893,"ELEMENT_SET_NO":999,"REV_AT_EPOCH":81391,"BSTAR":0.00022425917,"MEAN_MOTION_DOT":3.232e-5,"MEAN_MOTION_DDOT":0}]
